{
  "norad_id": 52600,
  "name": "STARLINK-4026",
  "history": [
    {
      "epoch": "2026-03-28T16:05:21.915456",
      "apogee_km": 540.6058321272094,
      "perigee_km": 538.8936551581583,
      "latitude_deg": -28.75413493450928,
      "longitude_deg": -135.64231616002508,
      "semi_major_axis_km": 6917.8867436426835,
      "eccentricity": 0.00012375,
      "inclination_deg": 53.2162,
      "raan_deg": 193.9144,
      "arg_perigee_deg": 94.5888,
      "mean_anomaly_deg": 265.5245,
      "mean_motion_rev_day": 15.08837921
    }
  ]
}